[{"OBJECT_NAME":"STARLINK-30505","OBJECT_ID":"2023-151J","EPOCH":"2026-03-08T02:51:45.258912","MEAN_MOTION":15.26785781,"ECCENTRICITY":0.00016319,"INCLINATION":43.0004,"RA_OF_ASC_NODE":345.0806,"ARG_OF_PERICENTER":252.0236,"MEAN_ANOMALY":108.0438,"EPHEMERIS_TYPE":0,"CLASSIFICATION_TYPE":"U","NORAD_CAT_ID":57972,"ELEMENT_SET_NO":999,"REV_AT_EPOCH":13552,"BSTAR":0.0013307698,"MEAN_MOTION_DOT":0.00035659,"MEAN_MOTION_DDOT":0},{"OBJECT_NAME":"BANDWAGON-2 OBJECT D","OBJECT_ID":"2024-247D","EPOCH":"2026-03-09T12:32:33.670752","MEAN_MOTION":15.29076102,"ECCENTRICITY":0.00034883,"INCLINATION":44.9954,"RA_OF_ASC_NODE":115.671,"ARG_OF_PERICENTER":351.1453,"MEAN_ANOMALY":8.9368,"EPHEMERIS_TYPE":0,"CLASSIFICATION_TYPE":"U","NORAD_CAT_ID":62380,"ELEMENT_SET_NO":999,"REV_AT_EPOCH":6773,"BSTAR":0.00040119131,"MEAN_MOTION_DOT":0.00011259,"MEAN_MOTION_DDOT":0}]
